WORLDVIEW-2(WV-2)
1 35946U 09055A   18094.21842836  .00000008  00000-0  17325-4 0  9992
2 35946  98.4729 172.0157 0000893 221.4600 138.6537 14.37587157445325
